{
  "type": "FeatureCollection",
  "features": [
    {
      "type": "Feature",
      "properties": {
        "norad_id": 67110,
        "name": "STARLINK-35781",
        "group": "last-30-days",
        "lat": -37.9710353671839,
        "lon": 131.618098443488,
        "alt_km": 295.15210834700974,
        "timestamp": "2025-12-22T20:43:44.569288+00:00",
        "meta_object_name": "STARLINK-35781",
        "meta_object_id": "2025-299J",
        "meta_epoch": "2025-12-22T14:00:01.999872",
        "meta_mean_motion": 15.94000866,
        "meta_eccentricity": 0.00022842,
        "meta_inclination": 42.9984,
        "meta_ra_of_asc_node": 256.4767,
        "meta_arg_of_pericenter": 269.3327,
        "meta_mean_anomaly": 164.7935,
        "meta_ephemeris_type": 0,
        "meta_classification_type": "U",
        "meta_norad_cat_id": 67110,
        "meta_element_set_no": 999,
        "meta_rev_at_epoch": 234,
        "meta_bstar": -0.0041794053,
        "meta_mean_motion_dot": -0.01591327,
        "meta_mean_motion_ddot": 0.0007213988,
        "tle_line1": "1 67110U 25299J   25356.58335648 -.01591327  72140-3 -41794-2 0  9999",
        "tle_line2": "2 67110  42.9984 256.4767 0002284 269.3327 164.7935 15.94000866  2341"
      },
      "geometry": {
        "type": "Point",
        "coordinates": [
          131.618098443488,
          -37.9710353671839
        ]
      }
    },
    {
      "type": "Feature",
      "properties": {
        "norad_id": 67111,
        "name": "STARLINK-35875",
        "group": "last-30-days",
        "lat": -37.32430058778691,
        "lon": 129.6473547605026,
        "alt_km": 295.4672356532965,
        "timestamp": "2025-12-22T20:43:44.569300+00:00",
        "meta_object_name": "STARLINK-35875",
        "meta_object_id": "2025-299K",
        "meta_epoch": "2025-12-22T14:00:01.999872",
        "meta_mean_motion": 15.9411085,
        "meta_eccentricity": 0.00016013,
        "meta_inclination": 42.9985,
        "meta_ra_of_asc_node": 256.4815,
        "meta_arg_of_pericenter": 273.7897,
        "meta_mean_anomaly": 158.5617,
        "meta_ephemeris_type": 0,
        "meta_classification_type": "U",
        "meta_norad_cat_id": 67111,
        "meta_element_set_no": 999,
        "meta_rev_at_epoch": 228,
        "meta_bstar": -0.0044677209,
        "meta_mean_motion_dot": -0.017093,
        "meta_mean_motion_ddot": 0.00082402344,
        "tle_line1": "1 67111U 25299K   25356.58335648 -.01709300  82402-3 -44677-2 0  9997",
        "tle_line2": "2 67111  42.9985 256.4815 0001601 273.7897 158.5617 15.94110850  2286"
      },
      "geometry": {
        "type": "Point",
        "coordinates": [
          129.6473547605026,
          -37.32430058778691
        ]
      }
    },
    {
      "type": "Feature",
      "properties": {
        "norad_id": 67112,
        "name": "STARLINK-35906",
        "group": "last-30-days",
        "lat": -38.457883771961484,
        "lon": 133.19737096693345,
        "alt_km": 295.1365666120282,
        "timestamp": "2025-12-22T20:43:44.569310+00:00",
        "meta_object_name": "STARLINK-35906",
        "meta_object_id": "2025-299L",
        "meta_epoch": "2025-12-22T14:00:01.999872",
        "meta_mean_motion": 15.94101655,
        "meta_eccentricity": 0.00021422,
        "meta_inclination": 42.9986,
        "meta_ra_of_asc_node": 256.4736,
        "meta_arg_of_pericenter": 273.7221,
        "meta_mean_anomaly": 161.6621,
        "meta_ephemeris_type": 0,
        "meta_classification_type": "U",
        "meta_norad_cat_id": 67112,
        "meta_element_set_no": 999,
        "meta_rev_at_epoch": 228,
        "meta_bstar": -0.0043662566,
        "meta_mean_motion_dot": -0.01670333,
        "meta_mean_motion_ddot": 0.00078958967,
        "tle_line1": "1 67112U 25299L   25356.58335648 -.01670333  78959-3 -43663-2 0  9997",
        "tle_line2": "2 67112  42.9986 256.4736 0002142 273.7221 161.6621 15.94101655  2285"
      },
      "geometry": {
        "type": "Point",
        "coordinates": [
          133.19737096693345,
          -38.457883771961484
        ]
      }
    },
    {
      "type": "Feature",
      "properties": {
        "norad_id": 67113,
        "name": "STARLINK-35789",
        "group": "last-30-days",
        "lat": -38.97065994450346,
        "lon": 134.96757370339623,
        "alt_km": 295.58303782873554,
        "timestamp": "2025-12-22T20:43:44.569322+00:00",
        "meta_object_name": "STARLINK-35789",
        "meta_object_id": "2025-299M",
        "meta_epoch": "2025-12-22T14:00:01.999872",
        "meta_mean_motion": 15.94092151,
        "meta_eccentricity": 0.00013354,
        "meta_inclination": 42.9985,
        "meta_ra_of_asc_node": 256.4698,
        "meta_arg_of_pericenter": 273.1743,
        "meta_mean_anomaly": 163.6807,
        "meta_ephemeris_type": 0,
        "meta_classification_type": "U",
        "meta_norad_cat_id": 67113,
        "meta_element_set_no": 999,
        "meta_rev_at_epoch": 228,
        "meta_bstar": -0.004257864,
        "meta_mean_motion_dot": -0.01628346,
        "meta_mean_motion_ddot": 0.00075329996,
        "tle_line1": "1 67113U 25299M   25356.58335648 -.01628346  75330-3 -42579-2 0  9990",
        "tle_line2": "2 67113  42.9985 256.4698 0001335 273.1743 163.6807 15.94092151  2286"
      },
      "geometry": {
        "type": "Point",
        "coordinates": [
          134.96757370339623,
          -38.97065994450346
        ]
      }
    },
    {
      "type": "Feature",
      "properties": {
        "norad_id": 67114,
        "name": "STARLINK-36180",
        "group": "last-30-days",
        "lat": -39.56403515900543,
        "lon": 137.1798529583982,
        "alt_km": 294.9794576686945,
        "timestamp": "2025-12-22T20:43:44.569332+00:00",
        "meta_object_name": "STARLINK-36180",
        "meta_object_id": "2025-299N",
        "meta_epoch": "2025-12-22T14:00:01.999872",
        "meta_mean_motion": 15.94101554,
        "meta_eccentricity": 0.00021468,
        "meta_inclination": 42.9985,
        "meta_ra_of_asc_node": 256.4656,
        "meta_arg_of_pericenter": 256.4947,
        "meta_mean_anomaly": 182.1749,
        "meta_ephemeris_type": 0,
        "meta_classification_type": "U",
        "meta_norad_cat_id": 67114,
        "meta_element_set_no": 999,
        "meta_rev_at_epoch": 239,
        "meta_bstar": -0.0043534103,
        "meta_mean_motion_dot": -0.01665476,
        "meta_mean_motion_ddot": 0.00078535966,
        "tle_line1": "1 67114U 25299N   25356.58335648 -.01665476  78536-3 -43534-2 0  9999",
        "tle_line2": "2 67114  42.9985 256.4656 0002146 256.4947 182.1749 15.94101554  2393"
      },
      "geometry": {
        "type": "Point",
        "coordinates": [
          137.1798529583982,
          -39.56403515900543
        ]
      }
    },
    {
      "type": "Feature",
      "properties": {
        "norad_id": 67115,
        "name": "STARLINK-35892",
        "group": "last-30-days",
        "lat": -40.03203152094349,
        "lon": 139.07705375941,
        "alt_km": 295.3295599865469,
        "timestamp": "2025-12-22T20:43:44.569342+00:00",
        "meta_object_name": "STARLINK-35892",
        "meta_object_id": "2025-299P",
        "meta_epoch": "2025-12-22T14:00:01.999872",
        "meta_mean_motion": 15.94182701,
        "meta_eccentricity": 0.00018176,
        "meta_inclination": 42.9985,
        "meta_ra_of_asc_node": 256.4616,
        "meta_arg_of_pericenter": 274.7945,
        "meta_mean_anomaly": 165.3765,
        "meta_ephemeris_type": 0,
        "meta_classification_type": "U",
        "meta_norad_cat_id": 67115,
        "meta_element_set_no": 999,
        "meta_rev_at_epoch": 228,
        "meta_bstar": -0.0047193811,
        "meta_mean_motion_dot": -0.01811212,
        "meta_mean_motion_ddot": 0.00091798814,
        "tle_line1": "1 67115U 25299P   25356.58335648 -.01811212  91799-3 -47194-2 0  9993",
        "tle_line2": "2 67115  42.9985 256.4616 0001817 274.7945 165.3765 15.94182701  2287"
      },
      "geometry": {
        "type": "Point",
        "coordinates": [
          139.07705375941,
          -40.03203152094349
        ]
      }
    },
    {
      "type": "Feature",
      "properties": {
        "norad_id": 67116,
        "name": "STARLINK-35738",
        "group": "last-30-days",
        "lat": -40.55454991639957,
        "lon": 141.3991663218705,
        "alt_km": 295.3035445732812,
        "timestamp": "2025-12-22T20:43:44.569352+00:00",
        "meta_object_name": "STARLINK-35738",
        "meta_object_id": "2025-299Q",
        "meta_epoch": "2025-12-22T14:00:01.999872",
        "meta_mean_motion": 15.94157928,
        "meta_eccentricity": 0.00017672,
        "meta_inclination": 42.9986,
        "meta_ra_of_asc_node": 256.4571,
        "meta_arg_of_pericenter": 269.3824,
        "meta_mean_anomaly": 172.6478,
        "meta_ephemeris_type": 0,
        "meta_classification_type": "U",
        "meta_norad_cat_id": 67116,
        "meta_element_set_no": 999,
        "meta_rev_at_epoch": 228,
        "meta_bstar": -0.0045802374,
        "meta_mean_motion_dot": -0.01756183,
        "meta_mean_motion_ddot": 0.00086673503,
        "tle_line1": "1 67116U 25299Q   25356.58335648 -.01756183  86674-3 -45802-2 0  9999",
        "tle_line2": "2 67116  42.9986 256.4571 0001767 269.3824 172.6478 15.94157928  2284"
      },
      "geometry": {
        "type": "Point",
        "coordinates": [
          141.3991663218705,
          -40.55454991639957
        ]
      }
    }
  ]
}